ORBCOMM FM20 [+]        
1 25416U 98046D   23283.25110575  .00002284  00000+0  85255-3 0  9992
2 25416  44.9939 211.3469 0001929 331.0153  29.0586 14.34474064315782
ORBCOMM FM16 [-]        
1 25417U 98046E   23283.12495537  .00003694  00000+0  13291-2 0  9999
2 25417  44.9935 209.0769 0003452  55.3349 304.7823 14.35171752315867
ORBCOMM FM15 [-]        
1 25418U 98046F   23283.25232657  .00003073  00000+0  11196-2 0  9999
2 25418  44.9967 212.0630 0002888  54.5175 305.5941 14.34933953315840
ORBCOMM FM14 [-]        
1 25419U 98046G   23283.53897155  .00003328  00000+0  12056-2 0  9990
2 25419  44.9958 210.0599 0002433  29.2840 142.1231 14.35042872315891
ORBCOMM FM13 [+]        
1 25420U 98046H   23283.31930849  .00002764  00000+0  10206-2 0  9994
2 25420  44.9971 214.9255 0004320  45.4246 314.6952 14.34504072315842
ORBCOMM FM21 [-]        
1 25475U 98053A   23283.40671334  .00002410  00000+0  89598-3 0  9992
2 25475  45.0085 298.6157 0002129 284.4363  75.6248 14.34524021309076
ORBCOMM FM22 [-]        
1 25476U 98053B   23283.44969187  .00002914  00000+0  10650-2 0  9994
2 25476  45.0081 296.4257 0002876 322.3719  37.6927 14.34885024309093
ORBCOMM FM23 [-]        
1 25477U 98053C   23283.36668542  .00002533  00000+0  93968-3 0  9998
2 25477  45.0087 301.2451 0002484 308.2599  51.8024 14.34498498309197
